GALAXY 34 (G-34)        
1 54027U 22128B   26193.34982693  .00000000  00000+0  00000+0 0  9996
2 54027   0.0229  13.4410 0001339 110.3523 163.3846  1.00271629 14168
ANGOSAT 2               
1 54033U 22131A   26192.49807312  .00000141  00000+0  00000+0 0  9992
2 54033   0.0206 116.2041 0000238 125.0439 250.4629  1.00271398 13729
EUTELSAT HOTBIRD 13F    
1 54048U 22134A   26193.20914877  .00000089  00000+0  00000+0 0  9997
2 54048   0.0552 285.8231 0001880  67.4520  25.1363  1.00271661 13621
LDPE-2                  
1 54219U 22144A   26193.24489377  .00000042  00000+0  00000+0 0  9993
2 54219   5.6710  63.4406 0002387 110.7785  70.6429  1.00542770 12090
EUTELSAT HOTBIRD 13G    
1 54225U 22146A   26192.85263053  .00000091  00000+0  00000+0 0  9993
2 54225   0.0446 222.9067 0002249 322.6434  64.1524  1.00272538  7718
ZHONGXING-19            
1 54230U 22148A   26193.33660762 -.00000080  00000+0  00000+0 0  9992
2 54230   0.0140 324.0328 0002930 174.9172  75.6437  1.00270485 13630
GALAXY 31 (G-31)        
1 54243U 22153A   26193.18255174  .00000000  00000+0  00000+0 0  9993
2 54243   0.0257  60.8113 0000939  59.2464 114.7341  1.00270088  7389
GALAXY 32 (G-32)        
1 54244U 22153B   26193.11721532 -.00000171  00000+0  00000+0 0  9993
2 54244   0.0122  10.1560 0001408  44.3435 186.7093  1.00266947 13390
EUTELSAT 10B            
1 54259U 22157A   26192.99467432  .00000072  00000+0  00000+0 0  9993
2 54259   0.0583  94.8222 0002012  32.6270 170.5273  1.00274592 13273
GALAXY 35 (G-35)        
1 54741U 22170A   26193.23557810  .00000000  00000+0  00000+0 0  9993
2 54741   0.0213  53.9436 0001879  62.9809 164.9128  1.00269145 13146
GALAXY 36 (G-36)        
1 54742U 22170B   26193.11764866 -.00000182  00000+0  00000+0 0  9994
2 54742   0.0287 111.1132 0002361 348.7092 143.5481  1.00271080 13027
METEOSAT-12 (MTG-I1)    
1 54743U 22170C   26193.20646209 -.00000006  00000+0  00000+0 0  9990
2 54743   0.7220  19.1495 0003773  82.7936 262.2075  1.00267051 13224
SHIJIAN-23 (SJ-23)      
1 55131U 23002A   26192.71564480 -.00000344  00000+0  00000+0 0  9997
2 55131   3.7776  78.0038 0003417 270.2862 330.4998  1.00078207 12751
APSTAR-6E               
1 55239U 23005A   26192.63717748 -.00000312  00000+0  00000+0 0  9992
2 55239   0.0557 234.1096 0001742 330.9010  87.9369  1.00272143 18931
USA 342                 
1 55263U 23008A   26190.28864118  .00000000  00000+0  00000+0 0  9998
2 55263   0.0052 352.2306 0000262   7.3445  55.4773  1.00269378 12734
LDPE-3A                 
1 55264U 23008B   26193.16493132 -.00000289  00000+0  00000+0 0  9993
2 55264   2.4103  81.3553 0001507  79.7949 338.3022  0.99150942 12066
ELEKTRO-L 4             
1 55506U 23016A   26192.73490764 -.00000053  00000+0  00000+0 0  9990
2 55506   0.1078 128.6577 0001249  48.2008 183.1363  1.00272384 12581
AMAZONAS NEXUS          
1 55508U 23017A   26192.55283288 -.00000277  00000+0  00000+0 0  9992
2 55508   0.0349  41.3147 0004412  43.3627 342.7993  1.00269216  7288
ZHONGXING-26            
1 55686U 23023A   26192.66095321 -.00000349  00000+0  00000+0 0  9997
2 55686   0.0660  71.3982 0003364  31.9982 189.2021  1.00274397 12472
LUCH-5X (OLYMP-K 2)     
1 55841U 23031A   26192.68287691  .00000038  00000+0  00000+0 0  9998
2 55841   0.0297  92.0561 0000943 160.2588 345.0840  1.00270002 12180
GAOFEN-13 02            
1 55912U 23036A   26193.20183686 -.00000216  00000+0  00000+0 0  9999
2 55912   1.0265   4.1653 0003716 336.3035 170.4882  1.00274870 12346
SES-18                  
1 55970U 23038A   26193.23690569 -.00000099  00000+0  00000+0 0  9990
2 55970   0.0481 264.1506 0000721 309.1391  59.0364  1.00271281 12351
SES-19                  
1 55971U 23038B   26193.24489377  .00000090  00000+0  00000+0 0  9995
2 55971   0.0193 320.7980 0001608 161.9023 120.7116  1.00272832 12341
INTELSAT 40E (IS-40E)   
1 56174U 23052A   26193.11721532  .00000000  00000+0  00000+0 0  9996
2 56174   0.0204  53.8390 0002205  87.7224  99.6615  1.00272829 12075
VIASAT-3 F1             
1 56370U 23060A   26193.11764866  .00000000  00000+0  00000+0 0  9990
2 56370   0.0167  18.6276 0000977  94.9154 129.8492  1.00268311 11685
ARCTURUS                
1 56371U 23060B   26193.10580862 -.00000319  00000+0  00000+0 0  9996
2 56371   2.8368  79.6324 0000825 133.1590 210.7204  1.00595943 11700
GS-1                    
1 56372U 23060C   26193.01036106 -.00000222  00000+0  00000+0 0  9997
2 56372   2.7876  79.5398 0003452 281.3860  22.0642  1.00267656  7789
BEIDOU-3 G4             
1 56564U 23066A   26193.35253189 -.00000278  00000+0  00000+0 0  9996
2 56564   0.4629 338.0719 0004867 188.0992  31.0340  1.00273421 11645
ARABSAT-7B (BADR-8)     
1 56757U 23075A   26193.21166212  .00000147  00000+0  00000+0 0  9999
2 56757   0.0740  30.1370 0003355   0.2289   1.9358  1.00270691 11367
NVS-01 (IRNSS-1J)       
1 56759U 23076A   26193.30346566 -.00000333  00000+0  00000+0 0  9992
2 56759   2.1091 243.2229 0003545   7.3934 278.3122  1.00265965 11364
NUSANTARA TIGA (SATRIA) 
1 57045U 23086A   26193.23540890 -.00000232  00000+0  00000+0 0  9998
2 57045   0.0339   9.8792 0002636 333.8503 177.1528  1.00272492 10015
